[{"OBJECT_NAME":"BLUEBON","OBJECT_ID":"2025-009CH","EPOCH":"2026-03-09T16:52:33.225312","MEAN_MOTION":15.29047254,"ECCENTRICITY":0.00011933,"INCLINATION":97.4017,"RA_OF_ASC_NODE":152.2033,"ARG_OF_PERICENTER":43.39,"MEAN_ANOMALY":316.7434,"EPHEMERIS_TYPE":0,"CLASSIFICATION_TYPE":"U","NORAD_CAT_ID":62688,"ELEMENT_SET_NO":999,"REV_AT_EPOCH":6376,"BSTAR":0.00037313027,"MEAN_MOTION_DOT":0.00010452,"MEAN_MOTION_DDOT":0},{"OBJECT_NAME":"STARLINK-36540","OBJECT_ID":"2026-012U","EPOCH":"2026-03-09T09:32:17.312640","MEAN_MOTION":15.27578005,"ECCENTRICITY":9.935e-5,"INCLINATION":42.9903,"RA_OF_ASC_NODE":316.3747,"ARG_OF_PERICENTER":107.9726,"MEAN_ANOMALY":252.1234,"EPHEMERIS_TYPE":0,"CLASSIFICATION_TYPE":"U","NORAD_CAT_ID":67511,"ELEMENT_SET_NO":999,"REV_AT_EPOCH":771,"BSTAR":0.0010815292,"MEAN_MOTION_DOT":0.00029617,"MEAN_MOTION_DDOT":0}]
